[carme]
albedo=0.03
color=1., 0.9, 0.75
coord_func=ell_orbit
halo=true
lighting=true
name=Carme
orbit_AscendingNode=157.3089190745055
orbit_Eccentricity=0.2602970868062183
orbit_Epoch=2454619.50000
orbit_Inclination=168.2000198365060
orbit_LongOfPericenter=249.8596440195790000
orbit_MeanLongitude=168.7753954572220000
orbit_Period=691.6548924754876
orbit_SemiMajorAxis=22545456.68297467
orbit_visualization_period=691.6548924754876
parent=Jupiter
radius=15
rot_equator_ascending_node=213.7
rot_obliquity=15.5
rot_periode=691.6548924754876
rot_rotation_offset=14.9
tex_halo=star16x16.png
tex_map=lune.png
type=moon

[charon]
albedo=0.35
color=1., 1., 1.
coord_func=ell_orbit
halo=true
lighting=true
name=Charon
orbit_AscendingNode=93.5582
orbit_Eccentricity=0.0002
orbit_Epoch=2451545.0
orbit_Inclination=0.0048
orbit_LongOfPericenter=227.3188
orbit_MeanLongitude=320.7583
orbit_Period=-6.387246
orbit_SemiMajorAxis=19636
orbit_visualization_period=6.387246
parent=Pluto
radius=593.
rot_equator_ascending_node=287.6
rot_obliquity=1.0
rot_periode=-153.293904
rot_rotation_offset=213.3
tex_halo=star16x16.png
tex_map=charon.png
type=moon

[deimos]
albedo=0.21
color=1., 0.93, 0.832
coord_func=deimos_special
halo=true
lighting=true
name=Deimos
orbit_visualization_period=1.263
parent=Mars
radius=6.2
rot_equator_ascending_node=186.6
rot_obliquity=0.6
rot_periode=30.29857807
rot_rotation_offset=318.9
tex_halo=star16x16.png
tex_map=deimos.png
type=moon

[despina]
albedo=0.06
color=1., 0.9, 0.75
coord_func=ell_orbit
halo=true
lighting=true
name=Despina
orbit_AscendingNode=16.63627320068509
orbit_Eccentricity=0.001272032273930335
orbit_Epoch=2454619.50000
orbit_Inclination=0.5113748544074094
orbit_LongOfPericenter=151.8881808
orbit_MeanLongitude=143.7191234
orbit_Period=0.3354528211477725
orbit_SemiMajorAxis=52588.64584972781
orbit_visualization_period=0.3354528211477725
parent=Neptune
radius=74
rot_equator_ascending_node=213.7
rot_obliquity=15.5
rot_periode=0.3354528211477725
rot_rotation_offset=14.9
tex_halo=star16x16.png
tex_map=lune.png
type=moon

[dione]
albedo=0.7
color=1.0, 0.98, 0.966
coord_func=dione_special
halo=true
lighting=true
name=Dione
orbit_visualization_period=2.736915
parent=Saturn
radius=560.
rot_obliquity=0.0
rot_periode=65.68597326
rot_rotation_offset=317.1
tex_halo=star16x16.png
tex_map=dione.png
type=moon

[earth]
albedo=0.3
atmosphere=1
color=0.898, 0.94, 1.
coord_func=earth_special
halo=true
landscape=guereins
lighting=true
name=Earth
oblateness=0.00335364
orbit_visualization_period=365.256363004
parent=Sun
radius=6378.14
rot_epoch=2451545.0
rot_obliquity=-23.4392803055555555556
rot_periode=23.9344694
rot_precession_rate=1.39639 #degrees/j.century (annual rate 50.27 arcseconds)
rot_rotation_offset=280.5
tex_halo=star16x16.png
tex_map=earth-clouds.png
type=planet

[elara]
albedo=0.03
color=1., 0.9, 0.75
coord_func=ell_orbit
halo=true
lighting=true
name=Elara
orbit_Ascendingnode=108.1879658680286
orbit_Eccentricity=0.1961747274882456
orbit_Epoch=2454619.50000
orbit_Inclination=31.98511468770062
orbit_LongOfPericenter=271.5797601368340000
orbit_MeanLongitude=172.2385623581720000
orbit_Period=258.8836449322499
orbit_SemiMajorAxis=11709431.51919092
orbit_visualization_period=258.8836449322499
parent=Jupiter
radius=40
rot_equator_ascending_node=213.7
rot_obliquity=15.5
rot_periode=0.5
rot_rotation_offset=14.9
tex_halo=star16x16.png
tex_map=lune.png
type=moon

[enceladus]
albedo=0.99
color=1., 0.998, 0.991
coord_func=enceladus_special
halo=true
lighting=true
name=Enceladus
orbit_visualization_period=1.370218
parent=Saturn
radius=249.4
rot_obliquity=0.0
rot_periode=32.88523401
rot_rotation_offset=322.9
tex_halo=star16x16.png
tex_map=enceladus.png
type=moon

[europa]
albedo=0.64
atmosphere=1
color=1., 0.968, 0.887
coord_func=europa_special
halo=true
lighting=true
name=Europa
orbit_visualization_period=3.551
parent=Jupiter
radius=1565.
rot_obliquity=0.0
rot_periode=85.22834590
rot_rotation_offset=56.2
tex_halo=star16x16.png
tex_map=europa.png
type=moon

[galatea]
albedo=0.06
color=1., 0.9, 0.75
coord_func=ell_orbit
halo=true
lighting=true
name=Galatea
orbit_AscendingNode=8.642606900770915
orbit_Eccentricity=0.0009319587984705302
orbit_Epoch=2454619.50000
orbit_Inclination=0.5752509266760514
orbit_LongOfPericenter=62.03770344
orbit_MeanLongitude=62.60684554
orbit_Period=0.4294734314535237
orbit_SemiMajorAxis=62005.26343616215
orbit_visualization_period=0.4294734314535237
parent=Neptune
radius=79
rot_equator_ascending_node=213.7
rot_obliquity=15.5
rot_periode=0.4294734314535237
rot_rotation_offset=14.9
tex_halo=star16x16.png
tex_map=lune.png
type=moon

[ganymede]
albedo=0.42
atmosphere=1
color=1., 0.962, 0.871
coord_func=ganymede_special
halo=true
lighting=true
name=Ganymede
orbit_visualization_period=7.155
parent=Jupiter
radius=2634.
rot_equator_ascending_node=161.6
rot_obliquity=0.1
rot_periode=171.7092749
rot_rotation_offset=262.1
tex_halo=star16x16.png
tex_map=ganymede.png
type=moon

[halimede]
albedo=0.06
color=1., 0.9, 0.75
coord_func=ell_orbit
halo=true
lighting=true
name=Halimede
orbit_AscendingNode=188.1838751463620
orbit_Eccentricity=0.2619064927013259
orbit_Epoch=2454619.50000
orbit_Inclination=139.1947079371791
orbit_LongOfPericenter=336.4277167
orbit_MeanLongitude=76.5585497
orbit_Period=1875.169478522967
orbit_SemiMajorAxis=16563980.32137450
orbit_visualization_period=1875.169478522967
parent=Neptune
radius=62
rot_equator_ascending_node=213.7
rot_obliquity=15.5
rot_periode=1875.169478522967
rot_rotation_offset=14.9
tex_halo=star16x16.png
tex_map=lune.png
type=moon

[himalia]
albedo=0.03
color=1., 0.9, 0.75
coord_func=ell_orbit
halo=true
lighting=true
name=Himalia
orbit_AscendingNode=62.74369092219344
orbit_Eccentricity=0.1341186732710830
orbit_Epoch=2454619.50000
orbit_Inclination=29.52734924407240
orbit_LongOfPericenter=48.3391873600156000
orbit_MeanLongitude=202.0757439998000000
orbit_Period=248.3161934941932
orbit_SemiMajorAxis=11388576.13393731
orbit_visualization_period=248.3161934941932
parent=Jupiter
radius=85
rot_equator_ascending_node=213.7
rot_obliquity=15.5
rot_periode=0.4
rot_rotation_offset=14.9
tex_halo=star16x16.png
tex_map=lune.png
type=moon

[hydra]
albedo=0.195
color=1., 1., 1.
coord_func=ell_orbit
halo=true
lighting=true
name=Hydra (moon)
orbit_AscendingNode=227.388734431
orbit_Eccentricity=0.004288704
orbit_Epoch=2455767.5
orbit_Inclination=0.212
orbit_LongOfPericenter=375.299780216
orbit_Period=-38.502879281
orbit_SemiMajorAxis=64749
orbit_visualization_period=38.502879281
parent=Pluto
radius=114
rot_obliquity=1.0
rot_periode=38.502879281
rot_rotation_offset=0.0
tex_halo=star16x16.png
tex_map=lune.png
type=moon

[hyperion]
PrecessionRate=51.43
RotationPeriod=120
albedo=0.3
color=1., 0.914, 0.835
coord_func=hyperion_special
halo=true
lighting=true
name=Hyperion
orbit_visualization_period=21.276609
parent=Saturn
radius=141.5
rot_equator_ascending_node=145
rot_obliquity=61.
rot_periode=???
rot_rotation_offset=318.9
tex_halo=star16x16.png
tex_map=hyperion.png
type=moon

[iapetus]
albedo=0.2
color=1., 0.973, 0.948
coord_func=iapetus_special
halo=true
lighting=true
name=Iapetus
orbit_visualization_period=79.33
parent=Saturn
radius=718.
rot_equator_ascending_node=213.7
rot_obliquity=15.5
rot_periode=1903.940390
rot_rotation_offset=14.9
tex_halo=star16x16.png
tex_map=iapetus.png
type=moon

[io]
albedo=0.61
atmosphere=1
color=1., .885, .598
coord_func=io_special
halo=true
lighting=true
name=Io
orbit_visualization_period=1.769
parent=Jupiter
radius=1821.3
rot_obliquity=0.0
rot_periode=42.45930719
rot_rotation_offset=220.8
tex_halo=star16x16.png
tex_map=io.png
type=moon

[jupiter]
albedo=0.51
atmosphere=1
color=1., 0.983, 0.934
coord_func=jupiter_special
halo=true
lighting=true
name=Jupiter
oblateness=0.064874
orbit_visualization_period=4331.87
parent=Sun
radius=71492
rot_equator_ascending_node=-22.203
rot_obliquity=2.222461
rot_periode=9.92491
rot_pole_de=64.49
rot_pole_ra=268.05
rot_rotation_offset=-1 # use JupiterGRS patch
tex_halo=star16x16.png
tex_map=jupiter.png #texture courtesy of Bj\xf6rn J\xf3nsson
type=planet

[laomedeia]
albedo=0.06
color=1., 0.9, 0.75
coord_func=ell_orbit
halo=true
lighting=true
name=Laomedeia
orbit_AscendingNode=33.54920843735481
orbit_Eccentricity=0.3845786604193581
orbit_Epoch=2454619.50000
orbit_Inclination=9.744680906468446
orbit_LongOfPericenter=159.9138961
orbit_MeanLongitude=305.1617125
orbit_Period=3185.068758279590
orbit_SemiMajorAxis=23580349.09459848
orbit_visualization_period=3185.068758279590
parent=Neptune
radius=42
rot_equator_ascending_node=213.7
rot_obliquity=15.5
rot_periode=3185.068758279590
rot_rotation_offset=14.9
tex_halo=star16x16.png
tex_map=lune.png
type=moon

[larissa]
albedo=0.06
color=1., 0.9, 0.75
coord_func=ell_orbit
halo=true
lighting=true
name=Larissa
orbit_AscendingNode=12.97300037402120
orbit_Eccentricity=0.001628627055845952
orbit_Epoch=2454619.50000
orbit_Inclination=0.3672114864338289
orbit_LongOfPericenter=342.2125629
orbit_MeanLongitude=38.69785092
orbit_Period=0.5553035150611498
orbit_SemiMajorAxis=73590.98861163890
orbit_visualization_period=0.5553035150611498
parent=Neptune
radius=79
rot_equator_ascending_node=213.7
rot_obliquity=15.5
rot_periode=0.5553035150611498
rot_rotation_offset=14.9
tex_halo=star16x16.png
tex_map=lune.png
type=moon

[leda]
albedo=0.03
color=1., 0.9, 0.75
coord_func=ell_orbit
halo=true
lighting=true
name=Leda
orbit_AscendingNode=205.5729208452909
orbit_Eccentricity=0.1849972068029340
orbit_Epoch=2454619.50000
orbit_Inclination=28.26096889279179
orbit_LongOfPericenter=133.1912542293990000
orbit_MeanLongitude=276.4502233853120000
orbit_Period=242.2566769525344
orbit_SemiMajorAxis=11202541.76637748
orbit_visualization_period=242.2566769525344
parent=Jupiter
radius=5
rot_equator_ascending_node=213.7
rot_obliquity=15.5
rot_periode=242.2566769525344
rot_rotation_offset=14.9
tex_halo=star16x16.png
tex_map=lune.png
type=moon

